[{"OBJECT_NAME":"STARLINK-36171","OBJECT_ID":"2025-293AA","EPOCH":"2026-03-09T12:04:34.768416","MEAN_MOTION":14.98344728,"ECCENTRICITY":0.00034225,"INCLINATION":70.0011,"RA_OF_ASC_NODE":94.7747,"ARG_OF_PERICENTER":272.5392,"MEAN_ANOMALY":87.5375,"EPHEMERIS_TYPE":0,"CLASSIFICATION_TYPE":"U","NORAD_CAT_ID":67027,"ELEMENT_SET_NO":999,"REV_AT_EPOCH":1486,"BSTAR":0.00045361424,"MEAN_MOTION_DOT":5.326e-5,"MEAN_MOTION_DDOT":0},{"OBJECT_NAME":"CZ-6A DEB","OBJECT_ID":"2024-140NJ","EPOCH":"2026-03-09T15:30:01.982592","MEAN_MOTION":15.1004937,"ECCENTRICITY":0.00567225,"INCLINATION":88.9288,"RA_OF_ASC_NODE":275.3548,"ARG_OF_PERICENTER":176.1403,"MEAN_ANOMALY":184.0287,"EPHEMERIS_TYPE":0,"CLASSIFICATION_TYPE":"U","NORAD_CAT_ID":61092,"ELEMENT_SET_NO":999,"REV_AT_EPOCH":8278,"BSTAR":0.0051635532,"MEAN_MOTION_DOT":0.00088127,"MEAN_MOTION_DDOT":0}]
